BEIDOU M6               
1 38775U 12050B   17345.63970925  .00000096  00000-0  00000-0 0  9994
2 38775  54.8590 167.2980 0019100 232.9626 346.3043  1.86233100 35754
